satname,norad_id,inclination_deg,eccentricity,mean_motion_rev_per_day,perigee_km,apogee_km,l1,l2
STARLINK-1234,45190,53.041,0.0006102,15.72229266,348.4201522375497,356.63425483154333,1 45190U 20012N   26144.88849172  .00063659  00000+0  47319-3 0  9993,2 45190  53.0410 309.6712 0006102 183.6141 176.4833 15.72229266347834
STARLINK-1269,45197,53.1581,0.0003039,15.33600011,463.0023553924493,467.16166390651415,1 45197U 20012V   26144.98077424  .00038077  00000+0  11613-2 0  9997,2 45197  53.1581  44.6202 0003039  83.7580 276.3769 15.33600011346604
STARLINK-1154,45198,53.043,6.21e-05,15.62443489,380.1815535884816,381.020988881769,1 45198U 20012W   26145.00002315  .00030112  00000+0  33750-3 0  9998,2 45198  53.0430   2.4705 0000621  64.5387  70.3790 15.62443489  5898
STARLINK-1199,45201,53.1581,0.0002445,15.33568645,463.5021288052767,466.84850852910404,1 45201U 20012Z   26144.95152763  .00039073  00000+0  11924-2 0  9992,2 45201  53.1581  29.0220 0002445 138.4854 221.6334 15.33568645346842
STARLINK-1209,45206,53.0407,0.0009168,15.64062063,369.7454649068013,382.129736094279,1 45206U 20012AE  26144.89179147  .00101787  00000+0  10465-2 0  9996,2 45206  53.0407 323.4120 0009168 176.7191 183.3884 15.64062063346796
STARLINK-1231,45212,53.0398,0.0003706,15.26804788,482.8277255572175,487.9149579401228,1 45212U 20012AL  26144.93783628  .00033941  00000+0  12784-2 0  9995,2 45212  53.0398  23.8678 0003706  60.3897 299.7469 15.26804788346858
STARLINK-1271,45217,53.1589,0.0002185,15.33697818,463.29588953117764,466.2862490974676,1 45217U 20012AR  26144.95073844  .00039244  00000+0  11927-2 0  9994,2 45217  53.1589  29.1656 0002185 125.1653 234.9554 15.33697818346848
STARLINK-1191,45222,53.1558,0.0004069,15.37461822,450.8381248972937,456.3978070886178,1 45222U 20012AW  26144.90118863  .00042578  00000+0  11460-2 0  9992,2 45222  53.1558   2.7900 0004069 139.9119 220.2186 15.37461822347211
STARLINK-1212,45223,53.0412,0.000352,15.65486827,369.46302336737335,374.21500648187975,1 45223U 20012AX  26144.92127763  .00046731  00000+0  46081-3 0  9997,2 45223  53.0412 339.0059 0003520 105.9839 254.1564 15.65486827347538
STARLINK-1215,45225,53.159,0.0002343,15.33784019,462.9314402791442,466.13791622757344,1 45225U 20012AZ  26144.88559461  .00034737  00000+0  10548-2 0  9999,2 45225  53.1590   3.7514 0002343 165.9553 194.1515 15.33784019347156
STARLINK-1221,45227,53.0649,0.0001798,15.44319163,432.15460120877196,434.6040224745093,1 45227U 20012BB  26144.74812317  .00014161  00000+0  31100-3 0  9995,2 45227  53.0649 268.4835 0001798 237.7758 122.3074 15.44319163348459
STARLINK-1222,45228,53.0539,7.39e-05,15.54064175,404.37305762396045,405.3755866973761,1 45228U 20012BC  26144.80847778  .00034124  00000+0  52235-3 0  9995,2 45228  53.0539 336.5718 0000739  57.3671 302.7410 15.54064175347446
STARLINK-1226,45229,53.1585,0.0002761,15.42262964,437.5498712380231,441.3145329514191,1 45229U 20012BD  26144.86353097  .00046667  00000+0  10716-2 0  9990,2 45229  53.1585   0.7594 0002761 156.7812 203.3319 15.42262964347132
STARLINK-1227,45230,53.1562,0.0003407,15.42375325,436.7784615165601,441.42372755417637,1 45230U 20012BE  26144.87440165  .00040567  00000+0  92993-3 0  9997,2 45230  53.1562   0.8291 0003407 155.1641 204.9530 15.42375325347256
STARLINK-1246,45235,53.1567,0.0003061,15.33712327,462.65330586599157,466.8425200096917,1 45235U 20012BK  26144.92247501  .00038413  00000+0  11672-2 0  9998,2 45235  53.1567  44.5239 0003061 132.1381 227.9882 15.33712327346650
STARLINK-1270,45237,53.0427,0.0002687,15.59455509,387.41346901618,391.0502530420963,1 45237U 20012BM  26144.95195300  .00088744  00000+0  10948-2 0  9999,2 45237  53.0427 339.6953 0002687 142.1101 218.0101 15.59455509347527
STARLINK-1279,45360,53.0358,0.0008917,15.72299574,346.3249990985387,358.3281077997599,1 45360U 20019A   26144.54890117  .00067156  00000+0  49667-3 0  9991,2 45360  53.0358  86.1475 0008917  63.5829 296.6103 15.72299574342550
STARLINK-1301,45361,53.0368,0.0006272,15.74581222,341.6058591726596,350.04039475592435,1 45361U 20019B   26144.54774364  .00069748  00000+0  46808-3 0  9990,2 45361  53.0368  89.0308 0006272  83.0467 277.1265 15.74581222342522
STARLINK-1262,45366,53.1539,0.0003846,15.32631781,465.3308014967379,470.5968222412275,1 45366U 20019G   26144.49288541  .00033085  00000+0  10423-2 0  9994,2 45366  53.1539 172.8847 0003846  24.7683 335.3503 15.32631781341366
STARLINK-1273,45367,53.0442,0.0006459,15.5497495,397.8460115011012,406.60488371091924,1 45367U 20019H   26144.49767978  .00057550  00000+0  84426-3 0  9999,2 45367  53.0442 151.1058 0006459   8.4981 351.6138 15.54974950341655
STARLINK-1277,45369,53.0438,0.0006811,15.61420737,378.94694004575103,388.15771324650814,1 45369U 20019K   26144.70418157  .00079440  00000+0  90997-3 0  9999,2 45369  53.0438 144.8264 0006811 359.3848   0.7155 15.61420737341762
STARLINK-1281,45370,53.1561,0.0004912,15.33549258,461.8715302551291,468.59445693683665,1 45370U 20019L   26144.77384132  .00029277  00000+0  89779-3 0  9992,2 45370  53.1561 171.2902 0004912  24.2836 335.8397 15.33549258341411
STARLINK-1300,45374,53.1586,0.0004699,15.33955775,460.80875774477045,467.2390205483898,1 45374U 20019Q   26144.79000139  .00026966  00000+0  81757-3 0  9990,2 45374  53.1586 171.1636 0004699  37.6943 322.4388 15.33955775341411
STARLINK-1302,45375,53.0449,0.0005504,15.65590597,367.82572242659353,375.25576768835344,1 45375U 20019R   26144.28554273  .00038145  00000+0  37583-3 0  9998,2 45375  53.0449 143.3277 0005504  23.9749 336.1521 15.65590597341748
STARLINK-1304,45376,53.0421,0.0006269,15.60668457,381.4847523840299,389.9652825815501,1 45376U 20019S   26144.37106477  .00069304  00000+0  81909-3 0  9990,2 45376  53.0421 143.7286 0006269  24.3043 335.8264 15.60668457341740
STARLINK-1305,45377,53.0379,0.0001642,15.69512009,359.1869341651518,361.3998347033985,1 45377U 20019T   26144.91434879  .00052919  00000+0  44241-3 0  9993,2 45377  53.0379 120.5094 0001642 129.9080 230.2081 15.69512009342124
STARLINK-1319,45379,53.0383,0.0004998,15.7473626,342.0213742695905,348.7422036510361,1 45379U 20019V   26144.93179483  .00071035  00000+0  47357-3 0  9995,2 45379  53.0383 112.6968 0004998  46.5688 313.5746 15.74736260342236
STARLINK-1266,45383,53.044,0.0001503,15.61131715,383.3704492255556,385.40326389683923,1 45383U 20019Z   26145.00002315  .01206250  00000+0  12795-1 0  9994,2 45383  53.0440 125.9259 0001503  94.1094 312.9959 15.61131715  5947
STARLINK-1267,45384,53.0448,0.0007667,15.63105659,373.5118968698562,383.87281900731887,1 45384U 20019AA  26144.31608390  .00118446  00000+0  12616-2 0  9994,2 45384  53.0448 120.4564 0007667  59.7471 300.4300 15.63105659342067
STARLINK-1272,45386,53.0396,0.0008477,15.67839261,359.36918199716547,370.8016412738516,1 45386U 20019AC  26144.56901688  .00049854  00000+0  44606-3 0  9990,2 45386  53.0396  98.4575 0008477  47.5282 312.6449 15.67839261342394
STARLINK-1274,45387,53.0213,0.0009146,15.58853626,384.7826688804589,397.1647261683711,1 45387U 20019AD  26144.26245302  .00069736  00000+0  88214-3 0  9996,2 45387  53.0213  98.3157 0009146  72.8121 287.3891 15.58853626342362
STARLINK-1280,45388,53.0377,0.0005658,15.75369869,339.7757352893341,347.3820289815585,1 45388U 20019AE  26144.31422293  .00068242  00000+0  44282-3 0  9997,2 45388  53.0377 108.2199 0005658  57.2945 302.8618 15.75369869342221
STARLINK-1283,45389,53.0397,0.0004425,15.69111456,358.45783581144315,364.42236154377224,1 45389U 20019AF  26144.85355854  .00055503  00000+0  47117-3 0  9991,2 45389  53.0397  96.2792 0004425  73.0067 287.1434 15.69111456342457
STARLINK-1284,45390,53.04,0.0005186,15.68083961,360.88720073229524,367.880543380792,1 45390U 20019AG  26144.92447252  .00049996  00000+0  44338-3 0  9996,2 45390  53.0400 119.6935 0005186   5.9725 354.1352 15.68083961342129
STARLINK-1297,45395,53.041,0.0006932,15.66494675,364.26643806692846,373.6205904919243,1 45395U 20019AM  26144.92470754  .00048379  00000+0  45756-3 0  9993,2 45395  53.0410 118.5579 0006932  14.2422 345.8788 15.66494675341321
STARLINK-1307,45397,53.0524,0.0002684,15.55483706,398.92746766432447,402.5663725526383,1 45397U 20019AP  26144.94130777  .00032305  00000+0  47000-3 0  9991,2 45397  53.0524 123.2136 0002684  52.4283 307.6971 15.55483706341905
STARLINK-1255,45399,53.0344,0.0006106,15.63946289,372.1466767749589,380.3951597247251,1 45399U 20019AR  26144.29371989  .00081656  00000+0  84747-3 0  9995,2 45399  53.0344  95.1880 0006106  65.3744 294.7905 15.63946289342226
STARLINK-1260,45404,53.1557,0.0005957,15.36212004,453.2509934772552,461.39476037462464,1 45404U 20019AW  26144.97249420  .00038952  00000+0  10926-2 0  9999,2 45404  53.1557 133.3494 0005957  37.1317 323.0098 15.36212004341670
STARLINK-1263,45405,53.1562,0.0004477,15.33581246,462.07409810888475,468.2015663936827,1 45405U 20019AX  26144.39689352  .00024507  00000+0  75312-3 0  9990,2 45405  53.1562 137.0282 0004477  50.0177 310.1217 15.33581246341570
STARLINK-1265,45406,53.1558,0.0005516,15.36567269,452.4993740512773,460.03909100700366,1 45406U 20019AY  26144.70822945  .00039452  00000+0  10939-2 0  9991,2 45406  53.1558 134.6177 0005516  27.4668 332.6626 15.36567269341632
STARLINK-1278,45408,53.04,0.0007339,15.67310157,361.6529791017556,371.55290839118516,1 45408U 20019BA  26144.32169701  .00043015  00000+0  39444-3 0  9998,2 45408  53.0400 120.5584 0007339  33.2278 326.9197 15.67310157341783
STARLINK-1296,45412,53.1559,0.0006459,15.36754802,451.29922730452927,460.12719500730145,1 45412U 20019BE  26144.29458649  .00037370  00000+0  10307-2 0  9994,2 45412  53.1559 136.2709 0006459  25.6990 334.4334 15.36754802341574
STARLINK-1309,45414,53.0604,0.0006858,15.66514554,364.2593253865816,373.51354272873596,1 45414U 20019BG  26144.20603233  .00041722  00000+0  39534-3 0  9998,2 45414  53.0604 114.9386 0006858  11.1281 348.9884 15.66514554341836
